[
  {
    "OBJECT_NAME": "STARLINK-11460 [DTC]",
    "OBJECT_ID": "24217N",
    "EPOCH": "2025-11-11T06:59:57.930144",
    "MEAN_MOTION": 15.69736925,
    "ECCENTRICITY": 0.0002189,
    "INCLINATION": 53.1569,
    "RA_OF_ASC_NODE": 295.2169,
    "ARG_OF_PERICENTER": 105.5294,
    "MEAN_ANOMALY": 254.5966,
    "EPHEMERIS_TYPE": 0,
    "CLASSIFICATION_TYPE": "U",
    "NORAD_CAT_ID": 62069,
    "ELEMENT_SET_NO": 999,
    "REV_AT_EPOCH": 5651,
    "BSTAR": 0.0007839500000000001,
    "MEAN_MOTION_DOT": 0.00095599,
    "MEAN_MOTION_DDOT": 0.0,
    "TLE_LINE1": "1 62069U 24217N   25315.29164271  .00095599  00000+0  78395-3 0  9998",
    "TLE_LINE2": "2 62069  53.1569 295.2169 0002189 105.5294 254.5966 15.69736925 56511",
    "COMMENT": "Grouped by shell and plane from TLE"
  },
  {
    "OBJECT_NAME": "STARLINK-11548 [DTC]",
    "OBJECT_ID": "25019A",
    "EPOCH": "2025-11-11T05:34:02.359200",
    "MEAN_MOTION": 15.70959783,
    "ECCENTRICITY": 4.54e-05,
    "INCLINATION": 42.9993,
    "RA_OF_ASC_NODE": 299.7206,
    "ARG_OF_PERICENTER": 175.7456,
    "MEAN_ANOMALY": 184.3416,
    "EPHEMERIS_TYPE": 0,
    "CLASSIFICATION_TYPE": "U",
    "NORAD_CAT_ID": 62829,
    "ELEMENT_SET_NO": 999,
    "REV_AT_EPOCH": 4525,
    "BSTAR": 0.0024404,
    "MEAN_MOTION_DOT": 0.00326989,
    "MEAN_MOTION_DDOT": 0.0,
    "TLE_LINE1": "1 62829U 25019A   25315.23197175  .00326989  00000+0  24404-2 0  9997",
    "TLE_LINE2": "2 62829  42.9993 299.7206 0000454 175.7456 184.3416 15.70959783 45255",
    "COMMENT": "Grouped by shell and plane from TLE"
  },
  {
    "OBJECT_NAME": "STARLINK-11480 [DTC]",
    "OBJECT_ID": "25019B",
    "EPOCH": "2025-11-11T06:04:38.021376",
    "MEAN_MOTION": 15.70958986,
    "ECCENTRICITY": 0.0001305,
    "INCLINATION": 42.9977,
    "RA_OF_ASC_NODE": 299.8906,
    "ARG_OF_PERICENTER": 240.6227,
    "MEAN_ANOMALY": 119.451,
    "EPHEMERIS_TYPE": 0,
    "CLASSIFICATION_TYPE": "U",
    "NORAD_CAT_ID": 62830,
    "ELEMENT_SET_NO": 999,
    "REV_AT_EPOCH": 4525,
    "BSTAR": 0.0017248,
    "MEAN_MOTION_DOT": 0.0022819,
    "MEAN_MOTION_DDOT": 0.0,
    "TLE_LINE1": "1 62830U 25019B   25315.25321784  .00228190  00000+0  17248-2 0  9999",
    "TLE_LINE2": "2 62830  42.9977 299.8906 0001305 240.6227 119.4510 15.70958986 45259",
    "COMMENT": "Grouped by shell and plane from TLE"
  },
  {
    "OBJECT_NAME": "STARLINK-11520 [DTC]",
    "OBJECT_ID": "25019F",
    "EPOCH": "2025-11-11T07:13:15.271680",
    "MEAN_MOTION": 15.70981278,
    "ECCENTRICITY": 0.000317,
    "INCLINATION": 43.0,
    "RA_OF_ASC_NODE": 299.3776,
    "ARG_OF_PERICENTER": 262.9653,
    "MEAN_ANOMALY": 97.0854,
    "EPHEMERIS_TYPE": 0,
    "CLASSIFICATION_TYPE": "U",
    "NORAD_CAT_ID": 62834,
    "ELEMENT_SET_NO": 999,
    "REV_AT_EPOCH": 4527,
    "BSTAR": 0.0023538,
    "MEAN_MOTION_DOT": 0.0031519,
    "MEAN_MOTION_DDOT": 0.0,
    "TLE_LINE1": "1 62834U 25019F   25315.30087120  .00315190  00000+0  23538-2 0  9998",
    "TLE_LINE2": "2 62834  43.0000 299.3776 0003170 262.9653  97.0854 15.70981278 45278",
    "COMMENT": "Grouped by shell and plane from TLE"
  },
  {
    "OBJECT_NAME": "STARLINK-11533 [DTC]",
    "OBJECT_ID": "25019H",
    "EPOCH": "2025-11-11T06:12:16.901280",
    "MEAN_MOTION": 15.71191858,
    "ECCENTRICITY": 0.0001591,
    "INCLINATION": 42.9982,
    "RA_OF_ASC_NODE": 299.9307,
    "ARG_OF_PERICENTER": 195.583,
    "MEAN_ANOMALY": 164.4989,
    "EPHEMERIS_TYPE": 0,
    "CLASSIFICATION_TYPE": "U",
    "NORAD_CAT_ID": 62836,
    "ELEMENT_SET_NO": 999,
    "REV_AT_EPOCH": 4525,
    "BSTAR": 0.0032755,
    "MEAN_MOTION_DOT": 0.00450013,
    "MEAN_MOTION_DDOT": 0.0,
    "TLE_LINE1": "1 62836U 25019H   25315.25852895  .00450013  00000+0  32755-2 0  9998",
    "TLE_LINE2": "2 62836  42.9982 299.9307 0001591 195.5830 164.4989 15.71191858 45250",
    "COMMENT": "Grouped by shell and plane from TLE"
  },
  {
    "OBJECT_NAME": "STARLINK-11557 [DTC]",
    "OBJECT_ID": "25019J",
    "EPOCH": "2025-11-11T07:20:54.216384",
    "MEAN_MOTION": 15.70939987,
    "ECCENTRICITY": 0.0002469,
    "INCLINATION": 43.0002,
    "RA_OF_ASC_NODE": 299.4196,
    "ARG_OF_PERICENTER": 275.0579,
    "MEAN_ANOMALY": 85.0007,
    "EPHEMERIS_TYPE": 0,
    "CLASSIFICATION_TYPE": "U",
    "NORAD_CAT_ID": 62837,
    "ELEMENT_SET_NO": 999,
    "REV_AT_EPOCH": 4526,
    "BSTAR": 0.0019447000000000002,
    "MEAN_MOTION_DOT": 0.00258081,
    "MEAN_MOTION_DDOT": 0.0,
    "TLE_LINE1": "1 62837U 25019J   25315.30618306  .00258081  00000+0  19447-2 0  9996",
    "TLE_LINE2": "2 62837  43.0002 299.4196 0002469 275.0579  85.0007 15.70939987 45268",
    "COMMENT": "Grouped by shell and plane from TLE"
  },
  {
    "OBJECT_NAME": "STARLINK-11556 [DTC]",
    "OBJECT_ID": "25019K",
    "EPOCH": "2025-11-11T05:43:00.880896",
    "MEAN_MOTION": 15.70890401,
    "ECCENTRICITY": 0.0001321,
    "INCLINATION": 43.0,
    "RA_OF_ASC_NODE": 299.7669,
    "ARG_OF_PERICENTER": 267.5863,
    "MEAN_ANOMALY": 92.4853,
    "EPHEMERIS_TYPE": 0,
    "CLASSIFICATION_TYPE": "U",
    "NORAD_CAT_ID": 62838,
    "ELEMENT_SET_NO": 999,
    "REV_AT_EPOCH": 4525,
    "BSTAR": 0.0014621999999999999,
    "MEAN_MOTION_DOT": 0.00191977,
    "MEAN_MOTION_DDOT": 0.0,
    "TLE_LINE1": "1 62838U 25019K   25315.23820464  .00191977  00000+0  14622-2 0  9999",
    "TLE_LINE2": "2 62838  43.0000 299.7669 0001321 267.5863  92.4853 15.70890401 45250",
    "COMMENT": "Grouped by shell and plane from TLE"
  },
  {
    "OBJECT_NAME": "STARLINK-11551 [DTC]",
    "OBJECT_ID": "25019M",
    "EPOCH": "2025-11-11T05:56:59.491392",
    "MEAN_MOTION": 15.70932787,
    "ECCENTRICITY": 7.16e-05,
    "INCLINATION": 42.9995,
    "RA_OF_ASC_NODE": 299.8439,
    "ARG_OF_PERICENTER": 212.2173,
    "MEAN_ANOMALY": 147.8651,
    "EPHEMERIS_TYPE": 0,
    "CLASSIFICATION_TYPE": "U",
    "NORAD_CAT_ID": 62840,
    "ELEMENT_SET_NO": 999,
    "REV_AT_EPOCH": 4525,
    "BSTAR": 0.0024264,
    "MEAN_MOTION_DOT": 0.00324636,
    "MEAN_MOTION_DDOT": 0.0,
    "TLE_LINE1": "1 62840U 25019M   25315.24791078  .00324636  00000+0  24264-2 0  9994",
    "TLE_LINE2": "2 62840  42.9995 299.8439 0000716 212.2173 147.8651 15.70932787 45253",
    "COMMENT": "Grouped by shell and plane from TLE"
  },
  {
    "OBJECT_NAME": "STARLINK-11531 [DTC]",
    "OBJECT_ID": "25019N",
    "EPOCH": "2025-11-11T06:19:55.738848",
    "MEAN_MOTION": 15.70950517,
    "ECCENTRICITY": 0.0001278,
    "INCLINATION": 43.0003,
    "RA_OF_ASC_NODE": 299.972,
    "ARG_OF_PERICENTER": 262.361,
    "MEAN_ANOMALY": 97.7112,
    "EPHEMERIS_TYPE": 0,
    "CLASSIFICATION_TYPE": "U",
    "NORAD_CAT_ID": 62841,
    "ELEMENT_SET_NO": 999,
    "REV_AT_EPOCH": 4525,
    "BSTAR": 0.0026061,
    "MEAN_MOTION_DOT": 0.00350042,
    "MEAN_MOTION_DDOT": 0.0,
    "TLE_LINE1": "1 62841U 25019N   25315.26383957  .00350042  00000+0  26061-2 0  9997",
    "TLE_LINE2": "2 62841  43.0003 299.9720 0001278 262.3610  97.7112 15.70950517 45252",
    "COMMENT": "Grouped by shell and plane from TLE"
  },
  {
    "OBJECT_NAME": "STARLINK-35596",
    "OBJECT_ID": "25236A",
    "EPOCH": "2025-11-11T08:00:03.000384",
    "MEAN_MOTION": 15.63925064,
    "ECCENTRICITY": 0.0001519,
    "INCLINATION": 53.1593,
    "RA_OF_ASC_NODE": 296.147,
    "ARG_OF_PERICENTER": 84.9267,
    "MEAN_ANOMALY": 86.5966,
    "EPHEMERIS_TYPE": 0,
    "CLASSIFICATION_TYPE": "U",
    "NORAD_CAT_ID": 66086,
    "ELEMENT_SET_NO": 999,
    "REV_AT_EPOCH": 482,
    "BSTAR": 0.0,
    "MEAN_MOTION_DOT": -0.0197853,
    "MEAN_MOTION_DDOT": 0.0,
    "TLE_LINE1": "1 66086U 25236A   25315.33336806 -.01978530  00000+0 -23425-1 0  9993",
    "TLE_LINE2": "2 66086  53.1593 296.1470 0001519  84.9267  86.5966 15.63925064  4820",
    "COMMENT": "Grouped by shell and plane from TLE"
  },
  {
    "OBJECT_NAME": "STARLINK-35563",
    "OBJECT_ID": "25236B",
    "EPOCH": "2025-11-11T06:00:02.000160",
    "MEAN_MOTION": 15.64316787,
    "ECCENTRICITY": 0.0001318,
    "INCLINATION": 53.1594,
    "RA_OF_ASC_NODE": 296.55,
    "ARG_OF_PERICENTER": 78.3275,
    "MEAN_ANOMALY": 345.5359,
    "EPHEMERIS_TYPE": 0,
    "CLASSIFICATION_TYPE": "U",
    "NORAD_CAT_ID": 66087,
    "ELEMENT_SET_NO": 999,
    "REV_AT_EPOCH": 475,
    "BSTAR": 0.0,
    "MEAN_MOTION_DOT": -0.02024216,
    "MEAN_MOTION_DDOT": 0.0,
    "TLE_LINE1": "1 66087U 25236B   25315.25002315 -.02024216  00000+0 -23671-1 0  9997",
    "TLE_LINE2": "2 66087  53.1594 296.5500 0001318  78.3275 345.5359 15.64316787  4756",
    "COMMENT": "Grouped by shell and plane from TLE"
  },
  {
    "OBJECT_NAME": "STARLINK-35461",
    "OBJECT_ID": "25236C",
    "EPOCH": "2025-11-11T06:00:02.000160",
    "MEAN_MOTION": 15.64317327,
    "ECCENTRICITY": 0.0001236,
    "INCLINATION": 53.1595,
    "RA_OF_ASC_NODE": 296.5431,
    "ARG_OF_PERICENTER": 76.5044,
    "MEAN_ANOMALY": 351.1915,
    "EPHEMERIS_TYPE": 0,
    "CLASSIFICATION_TYPE": "U",
    "NORAD_CAT_ID": 66088,
    "ELEMENT_SET_NO": 999,
    "REV_AT_EPOCH": 475,
    "BSTAR": 0.0,
    "MEAN_MOTION_DOT": -0.02023437,
    "MEAN_MOTION_DDOT": 0.0,
    "TLE_LINE1": "1 66088U 25236C   25315.25002315 -.02023437  00000+0 -23661-1 0  9991",
    "TLE_LINE2": "2 66088  53.1595 296.5431 0001236  76.5044 351.1915 15.64317327  4756",
    "COMMENT": "Grouped by shell and plane from TLE"
  },
  {
    "OBJECT_NAME": "STARLINK-35571",
    "OBJECT_ID": "25236D",
    "EPOCH": "2025-11-11T06:00:02.000160",
    "MEAN_MOTION": 15.64316682,
    "ECCENTRICITY": 0.0001207,
    "INCLINATION": 53.1594,
    "RA_OF_ASC_NODE": 296.5461,
    "ARG_OF_PERICENTER": 77.6655,
    "MEAN_ANOMALY": 348.118,
    "EPHEMERIS_TYPE": 0,
    "CLASSIFICATION_TYPE": "U",
    "NORAD_CAT_ID": 66089,
    "ELEMENT_SET_NO": 999,
    "REV_AT_EPOCH": 481,
    "BSTAR": 0.0,
    "MEAN_MOTION_DOT": -0.0202616,
    "MEAN_MOTION_DDOT": 0.0,
    "TLE_LINE1": "1 66089U 25236D   25315.25002315 -.02026160  00000+0 -23698-1 0  9998",
    "TLE_LINE2": "2 66089  53.1594 296.5461 0001207  77.6655 348.1180 15.64316682  4817",
    "COMMENT": "Grouped by shell and plane from TLE"
  }
]